IRIDIUM 171             
1 43929U 19002H   23227.05229675  .00000110  00000+0  32221-4 0  9996
2 43929  86.3932  67.2194 0002094  84.0111 276.1324 14.34217024240301
IRIDIUM 170             
1 43930U 19002J   23227.11387789  .00000489  00000+0  73631-4 0  9995
2 43930  86.6053  67.0591 0002418  89.9322 270.2172 14.72264647246674
IRIDIUM 167             
1 43931U 19002K   23226.83665073  .00000122  00000+0  36619-4 0  9998
2 43931  86.3924  67.1315 0002161  84.6582 275.4860 14.34217429240274
IRIDIUM 181             
1 56726U 23068S   23227.10400980  .00000387  00000+0  10846-3 0  9992
2 56726  86.8611 105.8946 0003850  74.8589 285.3038 14.43629677 12830
IRIDIUM 177             
1 56727U 23068T   23226.90816313  .00001403  00000+0  18122-3 0  9996
2 56727  86.1956 101.2614 0002225  78.0781 282.0689 14.80206189 12929
IRIDIUM 174             
1 56728U 23068U   23227.17314254  .00001496  00000+0  19344-3 0  9993
2 56728  86.1961 101.2141 0002194  86.4934 273.6538 14.80209642 12969
IRIDIUM 178             
1 56729U 23068V   23227.09967482  .00001381  00000+0  17798-3 0  9996
2 56729  86.5763 104.1655 0002579  81.5075 278.6438 14.80296653 12956
IRIDIUM 179             
1 56730U 23068W   23227.09426827  .00001376  00000+0  17735-3 0  9996
2 56730  86.6774 104.4365 0002613  77.9855 282.1659 14.80300231 12959
